NOAA 18                 
1 28654U 05018A   23058.44466663  .00000355  00000+0  21450-3 0  9993
2 28654  98.9197 133.3338 0013607 333.8440  26.2043 14.12872367916077
